[
    {
        "Altitude(m)": 604983.0528316319,
        "Argument of Periapsis(deg)": 0.0,
        "Eccentricity": 0.0,
        "Inclination(deg)": 60.0,
        "Latitude(deg)": -0.0925329892789133,
        "Longitude(deg)": 95.08391638587842,
        "Mean Anomaly(deg)": 180.0,
        "RAAN(deg)": 15.0,
        "Satellite Name": "Test1 77",
        "Satellite Number": 77,
        "Semi-Major Axis(m)": 6980739.136638005,
        "Time(s)": 0
    },
    {
        "Altitude(m)": 605055.3314893373,
        "Argument of Periapsis(deg)": 0.00010418945913296404,
        "Eccentricity": 0.0,
        "Inclination(deg)": 60.0,
        "Latitude(deg)": -0.6329429090423812,
        "Longitude(deg)": 95.35204120339642,
        "Mean Anomaly(deg)": 180.62010614546185,
        "RAAN(deg)": 14.999579950860259,
        "Satellite Name": "Test1 77",
        "Satellite Number": 77,
        "Semi-Major Axis(m)": 6980739.136638005,
        "Time(s)": 10
    }
]